{
     "restaurant":[ 
           {"name": "Fiskfélagið",
            "address": "Vesturgata 2a, Grófartorg",
            "postalcode": "101 Reykjavík",
            "website": "fishcompany.is",
            "phone": "552 5300",
            "image":""
             },
            
           {"name": "Grillmarkaðurinn", 
             "address": "Lækjargata 2a",
             "postalcode": "101 Reykjavík",
             "website": "grillmarkadurinn.is",
             "phone": "571 7777",
             "image":""
             },
   
           {"name": "Sæta Svínið Gastropub", 
             "address": "Hafnarstræti 1-3",
             "postalcode": "101 Reykjavík",
             "website": "saetasvinid.is",
             "phone": "555 2900",
             "image":"" 
            },
   
        {"name": "Apotek Kitchen+Bar", 
             "address": "Austurstræti 16",
             "postalcode": "101 Reykjavík",
             "website": "apotekrestaurant.is",
             "phone": "552 5300",
             "image":"" 
            },
   
        {"name": "Sjávargrillið", 
             "address": "Skólavörðustígur 14",
             "postalcode": "101 Reykjavík",
             "website": "sjavargrillid.is",
             "phone": "571 1100",
             "image":"" 
            },
   
        {"name": "Kol", 
             "address": "Skólavörðustígur 40",
             "postalcode": "101 Reykjavík",
             "website": "kolrestaurant.is",
             "phone": "517 7474",
             "image":"" 
            },
   
        {"name": "Rok", 
             "address": "Frakkastígur 26a",
             "postalcode": "101 Reykjavík",
             "website": "rokrestaurant.is",
             "phone": "544 4443",
             "image":"" 
            },
   
        {"name": "Sushi Social", 
             "address": "Þingholtsstræti 5",
             "postalcode": "101 Reykjavík",
             "website": "sushisocial.is",
             "phone": "568 6600",
             "image":"" 
            },
   
        {"name": "Skólabrú Restaurant", 
             "address": "Pósthússtræti 17",
             "postalcode": "101 Reykjavík",
             "mail": "skolabru.is",
             "phone": "511 1690",
             "image":"" 
            },
   
        {"name": "Lækjarbrekka", 
             "address": "Bankastræti 2",
             "postalcode": "101 Reykjavík",
             "mail": "laekjabrekka.is",
             "phone": "551 4430",
             "image":"" 
            },
   
        {"name": "Snaps Bistro", 
             "address": "Þórsgata 1",
             "postalcode": "101 Reykjavík",
             "mail": "snapsbistro.is",
             "phone": "511 6677",
             "image":"" 
            }
        ],
   
        "swim" :[
   
        {"name": "Sundhöllin", 
             "address": "Barónstígur 45a",
             "postalcode": "101 Reykjavík",
             "mail": "reykjavik.is",
             "phone": "411 5350",
             "image":"" 
            },
   
        {"name": "Vesturbæjarlaug", 
             "address": "Hofsvallagata",
             "postalcode": "107 Reykjavík",
             "mail": "vesturbaejarlaug.is",
             "phone": "411 5150",
             "image":"" 
            },
   
        {"name": "Sundlaug Seltjarnarness", 
             "address": "Hrólfsskálavör 13",
             "postalcode": "170 Seltjarnarnes",
             "mail": "seltjarnarnes.is",
             "phone": "561 1551",
             "image":"" 
            },
   
        {"name": "Laugardalslaug", 
             "address": "Sundlaugavegur 30",
             "postalcode": "105 Reykjavík",
             "mail": "reykjavik.is",
             "phone": "411 5100",
             "image":"" 
            }
        ],
   
        "cafes" : [
   
        {"name": "Te og Kaffi", 
             "address": "Austurstræti 18",
             "postalcode": "101 Reykjavík",
             "mail": "teogkaffi.is",
             "phone": "527 2884",
             "image":"" 
            },
   
        {"name": "Café Babalú", 
             "address": "Skólavörðustígur 22",
             "postalcode": "101 Reykjavík",
             "mail": "bablu.is",
             "phone": "555 8845",
             "image":"" 
            },
   
        {"name": "Kaffibrennslan", 
             "address": "Laugavegur 21",
             "postalcode": "101 Reykjavík",
             "mail": "kaffibrennslan101.is",
             "phone": "511 8888",
             "image":"" 
            },
   
        {"name": "Iðnó", 
             "address": "Vonarstræti 3",
             "postalcode": "101 Reykjavík",
             "mail": "idnorvk.is",
             "phone": "537 8800",
             "image":"" 
            },
   
        {"name": "Kaldi Bar/Café", 
             "address": "Laugavegur 20b",
             "postalcode": "101 Reykjavík",
             "mail": "facebook.com",
             "phone": "581 2200",
             "image":"" 
            },
   
        {"name": "Mokka Kaffi", 
             "address": "Skólavörðustígur 3a",
             "postalcode": "101 Reykjavík",
             "mail": "mokka.is",
             "phone": "552 1174",
             "image":"" 
            },
   
        {"name": "Cupcake Cafe", 
             "address": "Grettisgata 3",
             "postalcode": "101 Reykjavík",
             "mail": "Vefsíðu vantar",
             "phone": "823 3041",
             "image":"" 
            }
        ],
   
        "hairsaloons" :[
   
        {"name": "Skuggi hárgreiðslustofa", 
             "address": "Ingólfstræti 8",
             "postalcode": "101 Reykjavík",
             "mail": "Vefsíðu vantar",
             "phone": "571 4420",
             "image":"" 
            },
   
        {"name": "Græna Stofan", 
             "address": "Óðinsgata 7",
             "postalcode": "101 Reykjavík",
             "mail": "Vefsíðu vantar",
             "phone": "552 1375",
             "image":"" 
            },
   
        {"name": "Slippurinn Hárgreiðslustofa", 
             "address": "Laugavegur 48b",
             "postalcode": "101 Reykjavík",
             "mail": "slippur.timapantanir.is",
             "phone": "511 6660",
             "image":"" 
            },
   
        {"name": "Hár í Höndum", 
             "address": "Veltusundi 1",
             "postalcode": "101 Reykjavík",
             "mail": "Vefsíðu vantar",
             "phone": "562 3338",
             "image":"" 
            },
   
        {"name": "Rakararnir", 
             "address": "Klapparstígur 40",
             "postalcode": "101 Reykjavík",
             "mail": "Vefsíðu vantar",
             "phone": "551 3010",
             "image":"" 
            },
   
        {"name": "Effect", 
             "address": "Bergstaðarstræti 13",
             "postalcode": "101 Reykjavík",
             "mail": "Vefsíðu vantar",
             "phone": "562 3338",
             "image":"" 
            },
   
        {"name": "Hárgreiðslustöðin Valhöll", 
             "address": "Óðinsgata 2",
             "postalcode": "101 Reykjavík",
             "mail": "Vefsíðu vantar",
             "phone": "552 2138",
             "image":"" 
            },
   
        {"name": "Hár og Heilsa", 
             "address": "Bergstaðarstræti 13",
             "postalcode": "101 Reykjavík",
             "mail": "Vefsíðu vantar",
             "phone": "511 2100",
             "image":"" 
            },
        
        {"name": "Hárhornið", 
             "address": "Hverfisgata 117",
             "postalcode": "105 Reykjavík",
             "mail": "facebook.com",
             "phone": "552 3800",
             "image":"" 
            },
   
        {"name": "Reykjavík Hair", 
             "address": "Borgartún 8",
             "postalcode": "105 Reykjavík",
             "mail": "Vefsíðu vantar",
             "phone": "555 1001",
             "image":"" 
            },
   
        {"name": "Sjoppan", 
             "address": "Katrínartún 2",
             "postalcode": "105 Reykjavík",
             "mail": "Vefsíðu vantar",
             "phone": "511 1221",
             "image":"" 
            }
   
        ],
   
        "bars" : [
   
        {"name": "Kaffibarinn", 
             "address": "Bergstaðarstræti 1",
             "postalcode": "101 Reykjavík",
             "mail": "kaffibarinn.is",
             "phone": "551 1588",
             "image":"" 
            },
   
        {"name": "Den Danske Kro (Danska Kráin)", 
             "address": "Ingólfsstræti 3",
             "postalcode": "101 Reykjavík",
             "mail": "danski.is",
             "phone": "552 0070",
             "image":"" 
            },
   
        {"name": "Lebowski Bar", 
             "address": "Laugavegur 20a",
             "postalcodl": "101 Reykjavík",
             "mail": "lebowskibar.is",
             "phone": "552 2300",
             "image":"" 
            },
   
        {"name": "Klaustur Bar", 
             "address": "Kirkjutorgi 4",
             "postalcode": "101 Reykjavík",
             "mail": "klaustur.bar",
             "phone": "571 4421",
             "image":"" 
            },
   
        {"name": "Micro bar", 
             "address": "Vesturgata 2",
             "postalcode": "101 Reykjavík",
             "mail": "facebook.com",
             "phone": "865 8389",
             "image":"" 
            },
   
        {"name": "Gaukurinn", 
             "address": "Tryggvagata 22",
             "postalcode": "101 Reykjavík",
             "mail": "gaukurinn.is",
             "phone": "958 0212",
             "image":"" 
            },
   
        {"name": "Pablo Discobar", 
             "address": "Veltusund 1",
             "postalcode": "101 Reykjavík",
             "mail": "pablodiscobar.is",
             "phone": "552 7333",
             "image":"" 
            },
   
        {"name": "Skúli Craft Bar", 
             "address": "Aðalstræti 9",
             "postalcode": "101 Reykjavík",
             "mail": "facebook.com",
             "phone": "519 6455",
             "image":"" 
            },
   
        {"name": "Bjarni Fel Sportbar", 
             "address": "Austurstræti 20",
             "postalcode": "101 Reykjavík",
             "mail": "Vefsíðu vantar",
             "phone": "561 2240",
             "image":"" 
            },
   
        {"name": "Prikið", 
             "address": "Bankastræti 12",
             "postalcode": "101 Reykjavík",
             "mail": "prikid.is",
             "phone": "551 2866",
             "image":"" 
            },
   
        {"name": "Solon Bistro & Bar", 
             "address": "Bankastræti 7a",
             "postalcode": "101 Reykjavík",
             "mail": "solon.is",
             "phone": "562 3232",
             "image":"" 
            },
   
        {"name": "Íslenski barinn", 
             "address": "Ingólfsstræti 1a",
             "postalcode": "101 Reykjavík",
             "mail": "islenskibarinn.is",
             "phone": "517 6767",
             "image":"" 
            },
   
        {"name": "Ölstofa Kormáks og Skjaldar", 
             "address": "Vegamótastígur 4",
             "postalcode": "101 Reykjavík",
             "mail": "Vefsíðu vantar",
             "phone": "552 4687",
             "image":"" 
            },
   
        {"name": "Bravó", 
             "address": "Laugavegur 22",
             "postalcode": "101 Reykjavík",
             "mail": "Vefsíðu vantar",
             "phone": "Enginn sími",
             "image":"" 
            },
   
        {"name": "Kiki Queer Bar", 
             "address": "Laugavegur 22",
             "postalcode": "101 Reykjavík",
             "mail": "kiki.is",
             "phone": "571 0194",
             "image":"" 
            },
        
        {"name": "Veður", 
             "address": "Klapparstígur 33",
             "postalcode": "101 Reykjavík",
             "mail": "vedurbarinn.is",
             "phone": "561 2240",
             "image":"" 
            }
        ]
   }